DMSP 5D-2 F14 (USA 131) 
1 24753U 97012A   20088.89102821 -.00000042  00000-0  17225-5 0  9998
2 24753  99.0272 104.5751 0009818  76.4223 283.8043 14.15885812186810
NOAA 15                 
1 25338U 98030A   20088.81143954  .00000013  00000-0  24249-4 0  9993
2 25338  98.7256 114.2403 0011299 133.7982 226.4134 14.25956415137746
DMSP 5D-3 F15 (USA 147) 
1 25991U 99067A   20088.84459067 -.00000099  00000-0 -26780-4 0  9995
2 25991  98.9608  59.6320 0009566 335.9619  81.0301 14.16491854 49015
METEOSAT-8 (MSG-1)      
1 27509U 02040B   20088.52549358  .00000141  00000-0  00000+0 0  9993
2 27509   6.5842  54.4212 0000562 358.7551   3.6933  1.00272383 64476
DMSP 5D-3 F16 (USA 172) 
1 28054U 03048A   20088.90009208 -.00000082  00000-0 -19955-4 0  9995
2 28054  98.9046  68.2645 0008506  90.6773 322.7864 14.13663839848409
NOAA 18                 
1 28654U 05018A   20088.83588666  .00000044  00000-0  48455-4 0  9995
2 28654  99.0540 144.4748 0015298  98.7432 261.5472 14.12498611765534
METEOSAT-9 (MSG-2)      
1 28912U 05049B   20089.08629834  .00000021  00000-0  00000+0 0  9991
2 28912   4.2548  70.4130 0000970  22.8794 128.1093  1.00276693 52308
HIMAWARI-7 (MTSAT-2)    
1 28937U 06004A   20088.78144961 -.00000242  00000-0  00000+0 0  9995
2 28937   0.0719 297.3293 0001766  54.4804 261.1248  1.00277462 51579
FORMOSAT-3 FM6          
1 29047U 06011A   20088.88823072  .00000017  00000-0  22920-4 0  9993
2 29047  71.9769 274.4243 0051147 202.1760 157.7165 14.28722952729816
FORMOSAT-3 FM1          
1 29048U 06011B   20088.69522691  .00000062  00000-0  40735-4 0  9990
2 29048  71.9673 185.8264 0043226 161.2919 198.9819 14.28687124732277
FORMOSAT-3 FM5          
1 29049U 06011C   20088.91074407  .00000049  00000-0  35442-4 0  9997
2 29049  72.0230 356.5748 0035520 189.0116 171.0387 14.28769847728098
FORMOSAT-3 FM3          
1 29050U 06011D   20088.57420880  .00000120  00000-0  35602-4 0  9999
2 29050  72.0155 151.6238 0047993 112.8170 247.8062 14.58890426744636
FORMOSAT-3 FM4          
1 29051U 06011E   20088.84264050  .00000038  00000-0  30657-4 0  9998
2 29051  72.0038 258.9222 0066786  63.7920 297.0063 14.28799723730671
FORMOSAT-3 FM2          
1 29052U 06011F   20088.84804330  .00000082  00000-0  48224-4 0  9998
2 29052  72.0359 332.8787 0039493 148.1048 212.2492 14.28903214728180
GOES 13                 
1 29155U 06018A   20088.71021682  .00000039  00000-0  00000-0 0  9994
2 29155   0.3392 272.9902 0004693 314.8844 275.5575  1.00272123 20585
METOP-A                 
1 29499U 06044A   20088.93368045 -.00000010  00000-0  14731-4 0  9995
2 29499  98.5334 138.4413 0001681 110.4543  61.6719 14.21493766697268
DMSP 5D-3 F17 (USA 191) 
1 29522U 06050A   20088.89012076  .00000010  00000-0  28379-4 0  9996
2 29522  98.8074 106.4801 0010743  51.4931 308.7203 14.14020363691324
FENGYUN 3A              
1 32958U 08026A   20088.87677729 -.00000006  00000-0  16957-4 0  9993
2 32958  98.4017  78.8073 0008129 204.0146 156.0652 14.18621552613402
FENGYUN 2E              
1 33463U 08066A   20088.95928289 -.00000199  00000-0  00000+0 0  9998
2 33463   4.1737  68.7214 0004310 302.0322 247.9653  1.00267914 41316
NOAA 19                 
1 33591U 09005A   20088.83410263 -.00000015  00000-0  17515-4 0  9990
2 33591  99.1971  92.0802 0013134 304.3039  55.6888 14.12400185573757
GOES 14                 
1 35491U 09033A   20088.55146088 -.00000095  00000-0  00000-0 0  9997
2 35491   0.1298  99.0511 0008785 133.5375  48.2347  1.00272247 39346
METEOR-M 1              
1 35865U 09049A   20088.96518064  .00000011  00000-0  23684-4 0  9995
2 35865  98.4343  79.4474 0003451  73.9652 286.1906 14.22231688546486
DMSP 5D-3 F18 (USA 210) 
1 35951U 09057A   20088.89677569  .00000058  00000-0  53503-4 0  9992
2 35951  98.6416  81.5116 0010026 235.3107 124.7122 14.13254597312300
GOES 15                 
1 36411U 10008A   20088.67896672  .00000052  00000-0  00000+0 0  9999
2 36411   0.3089 276.3813 0002459 145.6901 240.9057  1.00281041 36893
COMS 1                  
1 36744U 10032A   20088.96757031 -.00000344  00000-0  00000+0 0  9997
2 36744   0.0148 158.0145 0000813 200.1272 305.1342  1.00271280 35871
FENGYUN 3B              
1 37214U 10059A   20089.14527739 -.00000013  00000-0  16754-4 0  9991
2 37214  99.0389  69.6710 0017624 132.0762 228.1914 14.15942780486317
SUOMI NPP               
1 37849U 11061A   20088.82917920  .00000005  00000-0  23122-4 0  9995
2 37849  98.7305  27.8603 0001408  95.1725 278.5998 14.19546938436183
FENGYUN 2F              
1 38049U 12002A   20086.20361696 -.00000361  00000-0  00000-0 0  9999
2 38049   1.8706  83.5177 0002823  34.7117 251.3378  1.00271484 30084
METEOSAT-10 (MSG-3)     
1 38552U 12035B   20089.12621590  .00000061  00000-0  00000+0 0  9995
2 38552   0.9972   5.0911 0000660 271.8079 324.7107  1.00272176 28442
METOP-B                 
1 38771U 12049A   20088.91563925 -.00000018  00000-0  11951-4 0  9991
2 38771  98.7013 149.4145 0000759 161.1551  10.8341 14.21488717390580
FENGYUN 3C              
1 39260U 13052A   20089.13390149 -.00000018  00000-0  11855-4 0  9994
2 39260  98.5613 142.6832 0012250  88.0285 272.2293 14.15834765337252
METEOR-M 2              
1 40069U 14037A   20089.11327424 -.00000033  00000-0  42113-5 0  9990
2 40069  98.5131 129.6469 0006278 144.9069 215.2529 14.20671114296809
HIMAWARI-8              
1 40267U 14060A   20083.56230038 -.00000289  00000-0  00000+0 0  9999
2 40267   0.0363 122.0099 0000907 273.2124 129.3487  1.00271280 20033
FENGYUN 2G              
1 40367U 14090A   20088.80276069 -.00000300  00000-0  00000-0 0  9994
2 40367   1.8923  95.7282 0002514 341.6011 137.5779  1.00281476 19262
METEOSAT-11 (MSG-4)     
1 40732U 15034A   20088.36772764 -.00000006  00000-0  00000+0 0  9995
2 40732   0.5107 223.2942 0000259 235.0944 219.9109  1.00269920 17253
ELEKTRO-L 2             
1 41105U 15074A   20089.17248743 -.00000097  00000-0  00000+0 0  9999
2 41105   1.0091  98.5732 0002100 312.7978 273.8410  1.00272775 15741
HIMAWARI-9              
1 41836U 16064A   20088.78382785 -.00000275  00000-0  00000-0 0  9990
2 41836   0.0180 144.8101 0001002 209.9966 254.7881  1.00271102 12413
GOES 16                 
1 41866U 16071A   20089.17388642 -.00000249  00000-0  00000+0 0  9993
2 41866   0.0445  23.3179 0000726  30.6691 120.5054  1.00272207 12332
FENGYUN 4A              
1 41882U 16077A   20088.64077253 -.00000330  00000-0  00000+0 0  9992
2 41882   0.1559  86.4226 0005267  30.5934  44.8286  1.00271721 12205
CYGFM05                 
1 41884U 16078A   20088.73725130  .00000301  00000-0  17698-4 0  9992
2 41884  34.9558 201.3276 0015437  42.3125 317.8774 15.14579220181866
CYGFM04                 
1 41885U 16078B   20088.66890748  .00000328  00000-0  18869-4 0  9993
2 41885  34.9490 195.3843 0013717  51.1788 309.0146 15.15088384181915
CYGFM02                 
1 41886U 16078C   20088.72764164  .00000309  00000-0  17897-4 0  9992
2 41886  34.9582 196.6948 0014496  48.0102 312.1841 15.15089439181917
CYGFM01                 
1 41887U 16078D   20088.62998927  .00000308  00000-0  18139-4 0  9997
2 41887  34.9525 203.0060 0015899  42.2615 317.9319 15.14392637181836
CYGFM08                 
1 41888U 16078E   20088.70987046  .00000305  00000-0  17772-4 0  9996
2 41888  34.9495 198.6319 0014992  49.2971 310.9040 15.14806274181879
CYGFM06                 
1 41889U 16078F   20088.70620838  .00000306  00000-0  17722-4 0  9996
2 41889  34.9576 195.5163 0013462  47.5448 312.6399 15.15082679181911
CYGFM07                 
1 41890U 16078G   20088.61870826  .00000328  00000-0  18873-4 0  9994
2 41890  34.9514 195.1908 0013196  49.7845 310.4019 15.15081930181900
CYGFM03                 
1 41891U 16078H   20088.67976626  .00000330  00000-0  18963-4 0  9999
2 41891  34.9546 195.0334 0012675  49.0303 311.1503 15.15077903181913
FENGYUN 3D              
1 43010U 17072A   20088.67387089 -.00000040  00000-0  20124-5 0  9990
2 43010  98.7442  28.9539 0001224   4.9244 355.1956 14.19738368122731
NOAA 20                 
1 43013U 17073A   20088.86234946  .00000013  00000-0  26672-4 0  9990
2 43013  98.7117  28.0862 0000904 104.6646 255.4631 14.19549896122223
GOES 17                 
1 43226U 18022A   20088.68452119  .00000097  00000-0  00000-0 0  9990
2 43226   0.0424 329.7406 0001055  37.9448 288.0690  1.00273332  7636
FENGYUN 2H              
1 43491U 18050A   20088.86924229 -.00000128  00000-0  00000-0 0  9997
2 43491   0.8495 276.5952 0002160 202.9931  99.2534  1.00269761  6730
METOP-C                 
1 43689U 18087A   20088.91904139 -.00000013  00000-0  13931-4 0  9994
2 43689  98.7076 149.6487 0001886 184.8687 175.2473 14.21486078 72158
GEO-KOMPSAT-2A          
1 43823U 18100A   20088.78937501 -.00000344  00000-0  00000-0 0  9990
2 43823   0.0093  45.7313 0001613   5.2163 188.1327  1.00270193  4833
IOD-1 GEMS              
1 44385U 98067QK  20088.79587273  .00014776  00000-0  20148-3 0  9993
2 44385  51.6419  17.5481 0002997  47.0322 313.0921 15.57747173 41903
METEOR-M2 2             
1 44387U 19038A   20089.10659749 -.00000021  00000-0  98525-5 0  9995
2 44387  98.6108  50.7825 0002462  97.3762 262.7696 14.23677355 38108

